[{"OBJECT_NAME":"SHIJIAN-6 01A (SJ-6 01A)","OBJECT_ID":"2004-035A","EPOCH":"2026-03-09T23:26:31.260480","MEAN_MOTION":15.1644809,"ECCENTRICITY":0.0008065,"INCLINATION":97.598,"RA_OF_ASC_NODE":95.8752,"ARG_OF_PERICENTER":114.4113,"MEAN_ANOMALY":245.7962,"EPHEMERIS_TYPE":0,"CLASSIFICATION_TYPE":"U","NORAD_CAT_ID":28413,"ELEMENT_SET_NO":999,"REV_AT_EPOCH":17242,"BSTAR":0.00047768034,"MEAN_MOTION_DOT":9.235e-5,"MEAN_MOTION_DDOT":0},{"OBJECT_NAME":"STARLINK-6324","OBJECT_ID":"2023-099AB","EPOCH":"2026-03-09T22:00:01.999584","MEAN_MOTION":15.14198639,"ECCENTRICITY":0.0001976,"INCLINATION":42.9996,"RA_OF_ASC_NODE":246.7837,"ARG_OF_PERICENTER":262.7011,"MEAN_ANOMALY":33.8485,"EPHEMERIS_TYPE":0,"CLASSIFICATION_TYPE":"U","NORAD_CAT_ID":57353,"ELEMENT_SET_NO":999,"REV_AT_EPOCH":578,"BSTAR":0.0068089875,"MEAN_MOTION_DOT":0.00128608,"MEAN_MOTION_DDOT":0}]
